CCSDS_OMM_VERS = 2.0
CREATION_DATE  = 
ORIGINATOR     = 

OBJECT_NAME    = STARLINK-36970
OBJECT_ID      = 2026-042C
CENTER_NAME    = EARTH
REF_FRAME      = TEME
TIME_SYSTEM    = UTC
MEAN_ELEMENT_THEORY = SGP/SGP4

EPOCH          = 2026-03-23T05:21:01.486368
MEAN_MOTION    = 15.80957036
ECCENTRICITY   = .000106
INCLINATION    = 53.1570
RA_OF_ASC_NODE = 126.9279
ARG_OF_PERICENTER = 94.4318
MEAN_ANOMALY   = 265.6826

EPHEMERIS_TYPE = 0
CLASSIFICATION_TYPE = U
NORAD_CAT_ID   = 68071
ELEMENT_SET_NO = 999
REV_AT_EPOCH   = 422
BSTAR          = .11146035E-2
MEAN_MOTION_DOT = .226015E-2
MEAN_MOTION_DDOT = 0

CCSDS_OMM_VERS = 2.0
CREATION_DATE  = 
ORIGINATOR     = 

OBJECT_NAME    = STARLINK-36972
OBJECT_ID      = 2026-042D
CENTER_NAME    = EARTH
REF_FRAME      = TEME
TIME_SYSTEM    = UTC
MEAN_ELEMENT_THEORY = SGP/SGP4

EPOCH          = 2026-03-23T05:22:06.281184
MEAN_MOTION    = 15.80942359
ECCENTRICITY   = .00012121
INCLINATION    = 53.1571
RA_OF_ASC_NODE = 126.9339
ARG_OF_PERICENTER = 44.9717
MEAN_ANOMALY   = 315.1403

EPHEMERIS_TYPE = 0
CLASSIFICATION_TYPE = U
NORAD_CAT_ID   = 68072
ELEMENT_SET_NO = 999
REV_AT_EPOCH   = 422
BSTAR          = .74854793E-3
MEAN_MOTION_DOT = .150115E-2
MEAN_MOTION_DDOT = 0

CCSDS_OMM_VERS = 2.0
CREATION_DATE  = 
ORIGINATOR     = 

OBJECT_NAME    = STARLINK-37074
OBJECT_ID      = 2026-042E
CENTER_NAME    = EARTH
REF_FRAME      = TEME
TIME_SYSTEM    = UTC
MEAN_ELEMENT_THEORY = SGP/SGP4

EPOCH          = 2026-03-23T05:19:55.807680
MEAN_MOTION    = 15.81016558
ECCENTRICITY   = .00016216
INCLINATION    = 53.1569
RA_OF_ASC_NODE = 126.9231
ARG_OF_PERICENTER = 122.9973
MEAN_ANOMALY   = 237.1206

EPHEMERIS_TYPE = 0
CLASSIFICATION_TYPE = U
NORAD_CAT_ID   = 68073
ELEMENT_SET_NO = 999
REV_AT_EPOCH   = 422
BSTAR          = .11774724E-2
MEAN_MOTION_DOT = .239849E-2
MEAN_MOTION_DDOT = 0

CCSDS_OMM_VERS = 2.0
CREATION_DATE  = 
ORIGINATOR     = 

OBJECT_NAME    = STARLINK-37045
OBJECT_ID      = 2026-042F
CENTER_NAME    = EARTH
REF_FRAME      = TEME
TIME_SYSTEM    = UTC
MEAN_ELEMENT_THEORY = SGP/SGP4

EPOCH          = 2026-03-23T04:00:01.999584
MEAN_MOTION    = 15.75219872
ECCENTRICITY   = .00016858
INCLINATION    = 53.1589
RA_OF_ASC_NODE = 127.2834
ARG_OF_PERICENTER = 86.5087
MEAN_ANOMALY   = 276.6408

EPHEMERIS_TYPE = 0
CLASSIFICATION_TYPE = U
NORAD_CAT_ID   = 68074
ELEMENT_SET_NO = 999
REV_AT_EPOCH   = 421
BSTAR          = -.56034001E-3
MEAN_MOTION_DOT = -.85604E-3
MEAN_MOTION_DDOT = 0

CCSDS_OMM_VERS = 2.0
CREATION_DATE  = 
ORIGINATOR     = 

OBJECT_NAME    = STARLINK-37026
OBJECT_ID      = 2026-042G
CENTER_NAME    = EARTH
REF_FRAME      = TEME
TIME_SYSTEM    = UTC
MEAN_ELEMENT_THEORY = SGP/SGP4

EPOCH          = 2026-03-23T07:15:32.204448
MEAN_MOTION    = 15.75265138
ECCENTRICITY   = .00009325
INCLINATION    = 53.1574
RA_OF_ASC_NODE = 126.7185
ARG_OF_PERICENTER = 94.6198
MEAN_ANOMALY   = 265.4929

EPHEMERIS_TYPE = 0
CLASSIFICATION_TYPE = U
NORAD_CAT_ID   = 68075
ELEMENT_SET_NO = 999
REV_AT_EPOCH   = 423
BSTAR          = .67681127E-3
MEAN_MOTION_DOT = .104516E-2
MEAN_MOTION_DDOT = 0

CCSDS_OMM_VERS = 2.0
CREATION_DATE  = 
ORIGINATOR     = 

OBJECT_NAME    = STARLINK-37023
OBJECT_ID      = 2026-042H
CENTER_NAME    = EARTH
REF_FRAME      = TEME
TIME_SYSTEM    = UTC
MEAN_ELEMENT_THEORY = SGP/SGP4

EPOCH          = 2026-03-23T05:36:41.970240
MEAN_MOTION    = 15.75304501
ECCENTRICITY   = .00019802
INCLINATION    = 53.1579
RA_OF_ASC_NODE = 126.9990
ARG_OF_PERICENTER = 43.6717
MEAN_ANOMALY   = 316.4460

EPHEMERIS_TYPE = 0
CLASSIFICATION_TYPE = U
NORAD_CAT_ID   = 68076
ELEMENT_SET_NO = 999
REV_AT_EPOCH   = 422
BSTAR          = .13978659E-4
MEAN_MOTION_DOT = .1508E-4
MEAN_MOTION_DDOT = 0

CCSDS_OMM_VERS = 2.0
CREATION_DATE  = 
ORIGINATOR     = 

OBJECT_NAME    = STARLINK-37036
OBJECT_ID      = 2026-042J
CENTER_NAME    = EARTH
REF_FRAME      = TEME
TIME_SYSTEM    = UTC
MEAN_ELEMENT_THEORY = SGP/SGP4

EPOCH          = 2026-03-23T05:37:10.216128
MEAN_MOTION    = 15.75290621
ECCENTRICITY   = .00015781
INCLINATION    = 53.1575
RA_OF_ASC_NODE = 127.0012
ARG_OF_PERICENTER = 130.3340
MEAN_ANOMALY   = 229.7819

EPHEMERIS_TYPE = 0
CLASSIFICATION_TYPE = U
NORAD_CAT_ID   = 68077
ELEMENT_SET_NO = 999
REV_AT_EPOCH   = 422
BSTAR          = -.42293388E-3
MEAN_MOTION_DOT = -.65123E-3
MEAN_MOTION_DDOT = 0

CCSDS_OMM_VERS = 2.0
CREATION_DATE  = 
ORIGINATOR     = 

OBJECT_NAME    = STARLINK-36973
OBJECT_ID      = 2026-042K
CENTER_NAME    = EARTH
REF_FRAME      = TEME
TIME_SYSTEM    = UTC
MEAN_ELEMENT_THEORY = SGP/SGP4

EPOCH          = 2026-03-23T05:13:27.022368
MEAN_MOTION    = 15.81037391
ECCENTRICITY   = .0000969
INCLINATION    = 53.1569
RA_OF_ASC_NODE = 126.8924
ARG_OF_PERICENTER = 139.1088
MEAN_ANOMALY   = 221.0008

EPHEMERIS_TYPE = 0
CLASSIFICATION_TYPE = U
NORAD_CAT_ID   = 68078
ELEMENT_SET_NO = 999
REV_AT_EPOCH   = 422
BSTAR          = .1606778E-2
MEAN_MOTION_DOT = .331409E-2
MEAN_MOTION_DDOT = 0

CCSDS_OMM_VERS = 2.0
CREATION_DATE  = 
ORIGINATOR     = 

OBJECT_NAME    = STARLINK-37063
OBJECT_ID      = 2026-042L
CENTER_NAME    = EARTH
REF_FRAME      = TEME
TIME_SYSTEM    = UTC
MEAN_ELEMENT_THEORY = SGP/SGP4

EPOCH          = 2026-03-23T05:14:32.368416
MEAN_MOTION    = 15.80930138
ECCENTRICITY   = .00008439
INCLINATION    = 53.1568
RA_OF_ASC_NODE = 126.8974
ARG_OF_PERICENTER = 111.5018
MEAN_ANOMALY   = 248.6095

EPHEMERIS_TYPE = 0
CLASSIFICATION_TYPE = U
NORAD_CAT_ID   = 68079
ELEMENT_SET_NO = 999
REV_AT_EPOCH   = 422
BSTAR          = .48388278E-3
MEAN_MOTION_DOT = .96126E-3
MEAN_MOTION_DDOT = 0

CCSDS_OMM_VERS = 2.0
CREATION_DATE  = 
ORIGINATOR     = 

OBJECT_NAME    = STARLINK-37051
OBJECT_ID      = 2026-042M
CENTER_NAME    = EARTH
REF_FRAME      = TEME
TIME_SYSTEM    = UTC
MEAN_ELEMENT_THEORY = SGP/SGP4

EPOCH          = 2026-03-23T05:11:18.433248
MEAN_MOTION    = 15.80922881
ECCENTRICITY   = .00011331
INCLINATION    = 53.1576
RA_OF_ASC_NODE = 126.8823
ARG_OF_PERICENTER = 88.6725
MEAN_ANOMALY   = 271.4428

EPHEMERIS_TYPE = 0
CLASSIFICATION_TYPE = U
NORAD_CAT_ID   = 68080
ELEMENT_SET_NO = 999
REV_AT_EPOCH   = 422
BSTAR          = .80360614E-3
MEAN_MOTION_DOT = .161273E-2
MEAN_MOTION_DDOT = 0

CCSDS_OMM_VERS = 2.0
CREATION_DATE  = 
ORIGINATOR     = 

OBJECT_NAME    = STARLINK-37066
OBJECT_ID      = 2026-042N
CENTER_NAME    = EARTH
REF_FRAME      = TEME
TIME_SYSTEM    = UTC
MEAN_ELEMENT_THEORY = SGP/SGP4

EPOCH          = 2026-03-23T05:23:36.986496
MEAN_MOTION    = 15.75323972
ECCENTRICITY   = .00015042
INCLINATION    = 53.1589
RA_OF_ASC_NODE = 126.9377
ARG_OF_PERICENTER = 103.6930
MEAN_ANOMALY   = 256.4258

EPHEMERIS_TYPE = 0
CLASSIFICATION_TYPE = U
NORAD_CAT_ID   = 68081
ELEMENT_SET_NO = 999
REV_AT_EPOCH   = 422
BSTAR          = .1454339E-2
MEAN_MOTION_DOT = .229289E-2
MEAN_MOTION_DDOT = 0

CCSDS_OMM_VERS = 2.0
CREATION_DATE  = 
ORIGINATOR     = 

OBJECT_NAME    = STARLINK-37054
OBJECT_ID      = 2026-042P
CENTER_NAME    = EARTH
REF_FRAME      = TEME
TIME_SYSTEM    = UTC
MEAN_ELEMENT_THEORY = SGP/SGP4

EPOCH          = 2026-03-23T05:10:13.016352
MEAN_MOTION    = 15.80976175
ECCENTRICITY   = .00009645
INCLINATION    = 53.1570
RA_OF_ASC_NODE = 126.8774
ARG_OF_PERICENTER = 93.0478
MEAN_ANOMALY   = 267.0655

EPHEMERIS_TYPE = 0
CLASSIFICATION_TYPE = U
NORAD_CAT_ID   = 68082
ELEMENT_SET_NO = 999
REV_AT_EPOCH   = 422
BSTAR          = .10410284E-2
MEAN_MOTION_DOT = .210862E-2
MEAN_MOTION_DDOT = 0

